{"type": "FeatureCollection", "features": [ {"type": "Feature", "properties": {"norad_id": 66911, "name": "1998-067XX", "group": "stations", "lat": -29.192999523341697, "lon": 102.42551074461228, "alt_km": 413.65221873024984, "timestamp": "2025-12-15T11:38:35.929116+00:00", "meta": {"OBJECT_NAME": "1998-067XX", "OBJECT_ID": "1998-067XX", "EPOCH": "2025-12-14T18:48:49.806720", "MEAN_MOTION": 15.52344469, "ECCENTRICITY": 0.00045838, "INCLINATION": 51.6294, "RA_OF_ASC_NODE": 132.1898, "ARG_OF_PERICENTER": 221.2762, "MEAN_ANOMALY": 138.7882, "EPHEMERIS_TYPE": 0, "CLASSIFICATION_TYPE": "U", "NORAD_CAT_ID": 66911, "ELEMENT_SET_NO": 999, "REV_AT_EPOCH": 192, "BSTAR": 0.0010081663, "MEAN_MOTION_DOT": 0.00062604, "MEAN_MOTION_DDOT": 0}, "tle": {"line1": "1 66911U 98067XX  25348.78390980  .00062604  00000+0  10082-2 0  9999", "line2": "2 66911  51.6294 132.1898 0004583 221.2762 138.7882 15.52344469  1928"}}, "geometry": {"type": "Point", "coordinates": [102.42551074461228, -29.192999523341697]}}, {"type": "Feature", "properties": {"norad_id": 66912, "name": "1998-067XY", "group": "stations", "lat": -47.2075899387347, "lon": 69.91329648619123, "alt_km": 415.28125826028554, "timestamp": "2025-12-15T11:38:35.929125+00:00", "meta": {"OBJECT_NAME": "1998-067XY", "OBJECT_ID": "1998-067XY", "EPOCH": "2025-12-14T18:56:09.789216", "MEAN_MOTION": 15.51365838, "ECCENTRICITY": 0.00043478, "INCLINATION": 51.6301, "RA_OF_ASC_NODE": 132.2238, "ARG_OF_PERICENTER": 234.7392, "MEAN_ANOMALY": 125.3191, "EPHEMERIS_TYPE": 0, "CLASSIFICATION_TYPE": "U", "NORAD_CAT_ID": 66912, "ELEMENT_SET_NO": 999, "REV_AT_EPOCH": 192, "BSTAR": 0.00071977927, "MEAN_MOTION_DOT": 0.00042904, "MEAN_MOTION_DDOT": 0}, "tle": {"line1": "1 66912U 98067XY  25348.78900219  .00042904  00000+0  71978-3 0  9995", "line2": "2 66912  51.6301 132.2238 0004347 234.7392 125.3191 15.51365838  1920"}}, "geometry": {"type": "Point", "coordinates": [69.91329648619123, -47.2075899387347]}}]}